CRE-(WAAS/PRN-138)------
1 28868U 05036A   23039.63591147 -.00000066  00000+0  00000+0 0  9990
2 28868   1.1584  91.4934 0001247 259.3440 269.2335  1.00272375 34176
IOR-W-(EGNOS/PRN-126)---
1 28899U 05044A   23039.77656072  .00000019  00000+0  00000+0 0  9994
2 28899   3.6917  39.3759 0002967 285.9715 156.7026  1.00272470 63246
QZS-1-(QZSS/PRN-183)----
1 37158U 10045A   23039.59207395 -.00000186  00000+0  00000+0 0  9995
2 37158  42.5867 130.1385 0765076 270.6783  84.2014  1.00245758 45430
GSAT-8-(GAGAN/PRN-127)--
1 37605U 11022A   23039.77222626  .00000093  00000+0  00000+0 0  9998
2 37605   0.0300 101.0094 0007735 182.4412 188.2247  1.00271279 40943
LUCH-5A-(SDCM/PRN-140)--
1 37951U 11074B   23039.91737635 -.00000040  00000+0  00000+0 0  9999
2 37951   5.6153  93.3035 0002337 235.9089 306.7801  1.00269735 40913
SES-5-(EGNOS/PRN-136)---
1 38652U 12036A   23039.66996753  .00000042  00000+0  00000+0 0  9998
2 38652   0.0527 287.4752 0002014  34.5471  62.6394  1.00272293 32209
GSAT-10-(GAGAN/PRN-128)-
1 38779U 12051B   23039.47035990 -.00000157  00000+0  00000+0 0  9999
2 38779   0.0177 116.7348 0003813 167.1184 106.7991  1.00268792 37833
LUCH-5B-(SDCM/PRN-125)--
1 38977U 12061A   23039.94354946 -.00000127  00000+0  00000+0 0  9994
2 38977   7.8033  60.8150 0000502 203.6072 197.6942  1.00272158 37907
ASTRA-5B-(EGNOS/PRN-123)
1 39617U 14011B   23039.88590937  .00000163  00000+0  00000+0 0  9997
2 39617   0.0580 302.6201 0003467  13.8926 172.5929  1.00270998 32392
LUCH-5V-(SDCM/PRN-141)--
1 39727U 14023A   23039.89563080 -.00000260  00000+0  00000+0 0  9991
2 39727   2.0682  77.3587 0003009 262.0829 216.4168  1.00269125 32083
GSAT-15-(GAGAN/PRN-139)-
1 41028U 15065A   23039.89563080 -.00000249  00000+0  00000+0 0  9992
2 41028   0.0426 263.3792 0001140  39.0220 252.2478  1.00270578 26539
E-117-W-B-(WAAS/PRN-131)
1 41589U 16038B   23039.64564852 -.00000003  00000+0  00000+0 0  9994
2 41589   0.0145 241.6448 0000279 215.2393 157.0012  1.00273295 24394
SES-15-(WAAS/PRN-133)---
1 42709U 17026A   23039.71494462  .00000068  00000+0  00000+0 0  9994
2 42709   0.0222   6.2466 0000384 319.1411 301.3669  1.00270674 21861
QZS-2-(QZSS/PRN-184)----
1 42738U 17028A   23039.48012235 -.00000101  00000+0  00000+0 0  9995
2 42738  41.3798 260.8176 0749999 269.9930 281.7528  1.00271875 20863
QZS-3-(QZSS/PRN-189)----
1 42917U 17048A   23039.83770764 -.00000340  00000+0  00000+0 0  9998
2 42917   0.0625 205.5976 0002079 131.2748 230.3507  1.00267928 19988
QZS-4-(QZSS/PRN-185)----
1 42965U 17062A   23039.76628476 -.00000305  00000+0  00000+0 0  9992
2 42965  40.7059 359.0842 0749640 269.1848 284.4684  1.00290947 19538
GALAXY-30-(WAAS/PRN-135)
1 46114U 20056C   23039.25604914  .00000044  00000+0  00000+0 0  9993
2 46114   0.0151  88.7080 0002088 241.4656 135.0818  1.00272599  9013
